{
    "links": {
        "self": "http://www.neowsapp.com/rest/v1/neo/3772699?api_key=iIulBulltgU6a56xZRHN4H3l9WmuAYTsLGpBGhQ2"
    },
    "id": "3772699",
    "neo_reference_id": "3772699",
    "name": "(2017 FF90)",
    "designation": "2017 FF90",
    "nasa_jpl_url": "http://ssd.jpl.nasa.gov/sbdb.cgi?sstr=3772699",
    "absolute_magnitude_h": 25.5,
    "estimated_diameter": {
        "kilometers": {
            "estimated_diameter_min": 0.0211132445,
            "estimated_diameter_max": 0.0472106499
        },
        "meters": {
            "estimated_diameter_min": 21.113244479,
            "estimated_diameter_max": 47.2106498806
        },
        "miles": {
            "estimated_diameter_min": 0.0131191578,
            "estimated_diameter_max": 0.0293353287
        },
        "feet": {
            "estimated_diameter_min": 69.2691770164,
            "estimated_diameter_max": 154.8905885541
        }
    },
    "is_potentially_hazardous_asteroid": false,
    "close_approach_data": [
        {
            "close_approach_date": "2017-03-25",
            "close_approach_date_full": "2017-Mar-25 19:50",
            "epoch_date_close_approach": 1490471400000,
            "relative_velocity": {
                "kilometers_per_second": "8.0878639686",
                "kilometers_per_hour": "29116.3102868985",
                "miles_per_hour": "18091.7429113231"
            },
            "miss_distance": {
                "astronomical": "0.0900390022",
                "lunar": "35.0251718558",
                "kilometers": "13469642.946045314",
                "miles": "8369648.0209367732"
            },
            "orbiting_body": "Earth"
        }
    ],
    "orbital_data": {
        "orbit_id": "5",
        "orbit_determination_date": "2018-02-10 07:08:50",
        "first_observation_date": "2017-03-21",
        "last_observation_date": "2017-03-31",
        "data_arc_in_days": 10,
        "observations_used": 53,
        "orbit_uncertainty": "8",
        "minimum_orbit_intersection": ".0898018",
        "jupiter_tisserand_invariant": "4.005",
        "epoch_osculation": "2457836.5",
        "eccentricity": ".3826557154038101",
        "semi_major_axis": "1.758504269165343",
        "inclination": "13.03768503761086",
        "ascending_node_longitude": "6.76658388891161",
        "orbital_period": "851.7527950135265",
        "perihelion_distance": "1.085602560007224",
        "perihelion_argument": "172.6881627936704",
        "aphelion_distance": "2.431405978323461",
        "perihelion_time": "2457832.560500909411",
        "mean_anomaly": "1.66506019224688",
        "mean_motion": ".4226578440453289",
        "equinox": "J2000",
        "orbit_class": {
            "orbit_class_type": "AMO",
            "orbit_class_description": "Near-Earth asteroid orbits similar to that of 1221 Amor",
            "orbit_class_range": "1.017 AU < q (perihelion) < 1.3 AU"
        }
    },
    "is_sentry_object": false
}